[{"OBJECT_NAME":"STARLINK-5423","OBJECT_ID":"2023-021AU","EPOCH":"2026-03-09T16:08:51.021600","MEAN_MOTION":14.98327109,"ECCENTRICITY":0.0003342,"INCLINATION":70.0011,"RA_OF_ASC_NODE":164.4345,"ARG_OF_PERICENTER":267.8807,"MEAN_ANOMALY":92.1969,"EPHEMERIS_TYPE":0,"CLASSIFICATION_TYPE":"U","NORAD_CAT_ID":55670,"ELEMENT_SET_NO":999,"REV_AT_EPOCH":16928,"BSTAR":-7.4615813e-5,"MEAN_MOTION_DOT":-9.83e-6,"MEAN_MOTION_DDOT":0},{"OBJECT_NAME":"FENGYUN 1C DEB","OBJECT_ID":"1999-025DRB","EPOCH":"2026-03-08T17:06:23.542272","MEAN_MOTION":14.91461657,"ECCENTRICITY":0.00586124,"INCLINATION":98.8697,"RA_OF_ASC_NODE":161.9577,"ARG_OF_PERICENTER":340.9686,"MEAN_ANOMALY":18.9339,"EPHEMERIS_TYPE":0,"CLASSIFICATION_TYPE":"U","NORAD_CAT_ID":35243,"ELEMENT_SET_NO":999,"REV_AT_EPOCH":92280,"BSTAR":0.0026680093,"MEAN_MOTION_DOT":0.00027599,"MEAN_MOTION_DDOT":0}]
